LANDSAT 9               
1 49260U 21088A   24183.17922385  .00000810  00000+0  18990-3 0  9993
2 49260  98.2313 252.5811 0001347  94.9471 265.1881 14.57081507146721
